{"fetched_at":"2026-05-09T13:14:32Z","count":3505,"tles":[{"name":"STARLINK-31259","line1":"1 59076U 24041C   26128.83145658  .00001082  00000+0  48830-4 0  9994","line2":"2 59076  43.0029 330.6981 0001281 251.1167 108.9545 15.27581848122424","category":"Starlink"},{"name":"STARLINK-34899","line1":"1 65323U 25189A   26129.13347919  .00016957  00000+0  55668-3 0  9991","line2":"2 65323  53.1590 285.7839 0001255  84.0980 276.0164 15.31714688 40361","category":"Starlink"},{"name":"BLOCK DM-SL R/B","line1":"1 28138U 04001B   26104.53174761 -.00000126  00000+0 -19568-2 0  9995","line2":"2 28138   0.8382  13.7034 7136531 318.6709   3.5266  2.24741107182789","category":"Other"},{"name":"STARLINK-1150","line1":"1 45067U 20006Z   23362.15803495  .00014667  00000+0  10009-2 0  9996","line2":"2 45067  53.0547 269.3256 0001497  99.7344 260.3814 15.06421368216120","category":"Starlink"},{"name":"STARLINK-5478","line1":"1 55642U 23021Q   23362.48108268  .00000546  00000+0  53539-4 0  9996","line2":"2 55642  70.0001  47.3024 0002780 262.3148  97.7695 14.98329254 48322","category":"Starlink"},{"name":"STARLINK-37051","line1":"1 68080U 26042M   26129.16668980  .00051602  00000+0  15304-2 0  9998","line2":"2 68080  53.1586 255.7662 0001193  93.5999 237.4225 15.34349083  5890","category":"Starlink"},{"name":"JCSAT-13","line1":"1 38331U 12023A   26128.99610711 -.00000348  00000+0  00000+0 0  9993","line2":"2 38331   0.0363  87.8811 0002848 345.4221 276.1297  1.00271708 51149","category":"Other"},{"name":"YAOGAN-35 02B","line1":"1 52908U 22068B   26128.93443429  .00068818  00000+0  98987-3 0  9993","line2":"2 52908  34.9970 318.0871 0004704  18.8327 341.2571 15.54873425216578","category":"Other"},{"name":"CZ-6A DEB","line1":"1 60213U 24126C   24215.93422520  .00012555  00000+0  13983-2 0  9991","line2":"2 60213  97.8273 221.9926 0004505 117.4047 242.7628 14.87219994  4312","category":"Other"},{"name":"SHIYAN-32 03","line1":"1 66379U 25255D   25342.79460574  .00019759  00000+0  44924-3 0  9994","line2":"2 66379  52.9957 196.7687 0015675  30.5170 329.6743 15.42904041  4620","category":"Other"},{"name":"FENGYUN 1C DEB","line1":"1 30926U 99025AZQ 26104.82316086  .00003758  00000+0  30391-3 0  9993","line2":"2 30926  98.8184  64.6538 0160598 345.9513  13.7260 14.90959400 26009","category":"Weather"},{"name":"ONEWEB-0146","line1":"1 47292U 20100AL  26129.14796580  .00000207  00000+0  54004-3 0  9991","line2":"2 47292  87.8981 358.4215 0002094  81.6147 278.5219 13.12446017259556","category":"Other"},{"name":"2023-085AM","line1":"1 57039U 23085AM  23362.50201548  .00013564  00000+0  78275-3 0  9993","line2":"2 57039  97.4646 104.5278 0011252 346.8934  13.2003 15.12410384 29635","category":"Other"},{"name":"STARLINK-33828","line1":"1 63493U 25071A   26128.95399272  .00031937  00000+0  73998-3 0  9996","line2":"2 63493  53.1596 220.9378 0001328  81.7395 278.3762 15.42172191 61964","category":"Starlink"},{"name":"STARLINK-6162","line1":"1 76162C 23090AG  23185.64562500 -.00981827  00000-0 -59593-2 0  1850","line2":"2 76162  43.0002 215.0945 0001261 263.7031 357.9345 15.77529759    15","category":"Starlink"},{"name":"STARLINK-30571","line1":"1 58066U 23158R   26128.95023917 -.00000947  00000+0 -24888-4 0  9994","line2":"2 58066  43.0067  46.9285 0001604 268.2482  91.8186 15.27576270142781","category":"Starlink"},{"name":"STARLINK-11710 [DTC]","line1":"1 64244U 25119M   26128.91117161  .00164013  00000+0  12544-2 0  9996","line2":"2 64244  42.9977 206.3274 0002626  51.2325 308.8777 15.70880849 54715","category":"Starlink"},{"name":"EKRAN 8","line1":"1 13056U 82009A   26104.80133769 -.00000043  00000+0  00000+0 0  9990","line2":"2 13056   7.2086 296.9252 0029396 341.5279 217.4281  0.99948196117981","category":"Other"},{"name":"MUOS-5","line1":"1 41622U 16041A   26129.16294677 -.00000121  00000+0  00000+0 0  9992","line2":"2 41622   2.2889 300.9238 0195211 261.3613 338.4075  1.00269897 36698","category":"Other"},{"name":"STARLINK-4795","line1":"1 53856U 22114AQ  26129.16668980  .00757540  00000+0  18348-1 0  9993","line2":"2 53856  53.2177   9.2671 0000820 103.3160 129.3004 15.38387714  5857","category":"Starlink"},{"name":"STARLINK-30752","line1":"1 58171U 23166X   26128.46578237  .00000031  00000+0  13167-4 0  9996","line2":"2 58171  53.1612 301.7856 0001068  90.5451 269.5672 15.30187706142339","category":"Starlink"},{"name":"KANOPUS-V 4","line1":"1 43181U 18014B   26129.21267644  .00002093  00000+0  92524-4 0  9992","line2":"2 43181  97.3612  35.6763 0002146  89.2573 270.8910 15.22787240458804","category":"Other"},{"name":"2022-158B","line1":"1 54362U 22158B   23362.43455666  .00007955  00000+0  34493-3 0  9994","line2":"2 54362  97.4611  97.9663 0020238 307.0619  52.8766 15.22451156 60294","category":"Other"},{"name":"JILIN-01 KUANFU 02B 2","line1":"1 61190U 24169B   26129.16875479  .00002879  00000+0  18187-3 0  9999","line2":"2 61190  97.5550 218.6750 0012435 154.7510 205.4329 15.09792870 89940","category":"Other"},{"name":"DELTA 4 R/B","line1":"1 36109U 09068B   26104.63274968  .00000061  00000+0  84617-4 0  9996","line2":"2 36109  24.3486 308.0383 8169045 178.5455 180.0074  1.19264185 70937","category":"Other"},{"name":"STARLINK-3700","line1":"1 51956U 22025A   26129.16099586  .00000244  00000+0  19642-4 0  9996","line2":"2 51956  53.1616  92.4701 0001371  89.7724 270.3435 15.31701677230436","category":"Starlink"},{"name":"STARLINK-31418","line1":"1 59251U 24049W   24104.58918291 -.00273740  00000+0 -52430-2 0  9995","line2":"2 59251  42.9995 145.0855 0001302 322.7233  37.3536 15.48234295  5788","category":"Starlink"},{"name":"FENGYUN 1C DEB","line1":"1 30022U 99025MX  26104.35735437  .00000048  00000+0  41265-4 0  9995","line2":"2 30022  99.0624 321.1521 0066459 277.9664 256.3077 14.23175859999366","category":"Weather"},{"name":"STARLINK-1488","line1":"1 45775U 20038AX  23361.85333148  .00069200  00000+0  25891-2 0  9994","line2":"2 45775  53.0716 168.9664 0001507 315.1255  44.9621 15.26701417197172","category":"Starlink"},{"name":"CHECKMATE 1","line1":"1 56168U 23050G   26129.03199345  .00000069  00000+0  51256-4 0  9997","line2":"2 56168  81.0013 109.5071 0012557  90.7157 269.5438 13.84945566156676","category":"Other"},{"name":"STARLINK-34595","line1":"1 64749U 25144AB  26129.06039338  .00020654  00000+0  70798-3 0  9998","line2":"2 64749  53.1588 260.7030 0001807  79.3145 280.8059 15.30178269 48955","category":"Starlink"},{"name":"FLOCK 1C-11","line1":"1 40033C 14033Z   23256.33901620  .00019623  00000-0  14535-2 0  2560","line2":"2 40033  98.0995 229.5775 0012042 334.6171 351.9341 15.03143152    15","category":"Other"},{"name":"STARLINK-4378","line1":"1 53476U 22099M   26129.20330428  .00011921  00000+0  82794-3 0  9995","line2":"2 53476  97.5146 249.7119 0001102 157.1372 202.9904 15.05694340205080","category":"Starlink"},{"name":"STARLINK-11191 [DTC]","line1":"1 60410U 24141N   26128.34411206  .00001954  00000+0  20984-4 0  9998","line2":"2 60410  53.1591 152.0844 0000821  69.9213 290.1893 15.69704577101119","category":"Starlink"},{"name":"STARLINK-36398","line1":"1 67562U 26016B   26129.13699069  .00010899  00000+0  33937-3 0  9998","line2":"2 67562  97.2831 189.7784 0000477 129.4642 230.6643 15.33452153 16135","category":"Starlink"},{"name":"FENGYUN 1C DEB","line1":"1 31484U 99025BVY 26104.45368522  .00007046  00000+0  15067-2 0  9990","line2":"2 31484 101.8110  95.7294 0071513 178.3521 181.7913 14.57705058660211","category":"Weather"},{"name":"STARLINK-2399","line1":"1 47816U 21018AF  26128.89686762 -.00000188  00000+0  58312-5 0  9990","line2":"2 47816  53.1565 338.0079 0001297  90.8815 269.2334 15.29357167285711","category":"Starlink"},{"name":"YAOGAN-36 05A","line1":"1 57452U 23106A   26128.94415138  .00009445  00000+0  39411-3 0  9991","line2":"2 57452  35.0065 304.4668 0001482  20.2338 339.8435 15.22916336155169","category":"Other"},{"name":"STARLINK-33920","line1":"1 63710U 25087P   26129.16668980 -.00011431  00000+0 -35717-3 0  9990","line2":"2 63710  53.1598 298.8475 0000886  89.8675 359.1248 15.31698107  5860","category":"Starlink"},{"name":"STARLINK-35312","line1":"1 65866U 25223N   26128.98482500  .00004669  00000+0  16963-3 0  9992","line2":"2 65866  53.1590  14.3509 0000834 102.5120 257.5974 15.30204119 33432","category":"Starlink"},{"name":"STARLINK-36187","line1":"1 68613U 26073M   26129.09678132  .00218690  00000+0  14319-2 0  9993","line2":"2 68613  97.2847 327.9686 0002155  69.8051 290.3446 15.75155925  5071","category":"Starlink"},{"name":"FENGYUN 1C DEB","line1":"1 33674U 99025DFK 26100.54918131  .00001394  00000+0  12321-2 0  9996","line2":"2 33674  98.5951 144.3140 0207182 280.4260  77.3605 13.77367884900002","category":"Weather"},{"name":"SPACEBEE-109","line1":"1 48897U 21059U   23361.92229292  .00136462  00000+0  16737-2 0  9992","line2":"2 48897  97.6067 147.7302 0005491 302.4065  57.6659 15.59854956139284","category":"Other"},{"name":"STARLINK-30879","line1":"1 58235U 23171F   23362.10507327  .00011482  00000+0  59848-3 0  9990","line2":"2 58235  42.9994 331.4405 0000594 279.4314  80.6466 15.15969649  8902","category":"Starlink"},{"name":"TDRS 6","line1":"1 22314U 93003B   26129.14979147 -.00000289  00000+0  00000+0 0  9997","line2":"2 22314  14.1828 357.3525 0006352 175.6475  62.0728  1.00269022122012","category":"Other"},{"name":"ZHUHAI-1 OHS-03","line1":"1 43442U 18040D   23362.43898621  .00031926  00000+0  77947-3 0  9994","line2":"2 43442  97.1583  48.5813 0002075 213.4241 146.6876 15.40787453315171","category":"Other"},{"name":"STARLINK-11306 [DTC]","line1":"1 61254U 24175M   26129.16939139 -.00000945  00000+0 -29432-5 0  9992","line2":"2 61254  53.1591 118.2550 0001071  91.4512 268.6628 15.69722370 94066","category":"Starlink"},{"name":"FENGYUN 1C DEB","line1":"1 36261U 99025DWN 26094.48845284  .00000399  00000+0  52281-3 0  9998","line2":"2 36261 101.3594   6.6357 0354762 173.7765 186.7944 13.45582994859497","category":"Weather"}]}